#aV2022  9 30  0  0  0.00000000     288 DD+AD WGS84 FIT  NGA
## 2229 432000.00000000   300.00000000 59852 0.0000000000000
+   32     1  2  3  4  5  6  7  8  9 10 11 12 13 14 15 16 17
+         18 19 20 21 22 23 24 25 26 27 28 29 30 31 32  0  0
+          0  0  0  0  0  0  0  0  0  0  0  0  0  0  0  0  0
+          0  0  0  0  0  0  0  0  0  0  0  0  0  0  0  0  0
+          0  0  0  0  0  0  0  0  0  0  0  0  0  0  0  0  0
++         2  2  2  2  2  2  2  2  2  2  2  2  2  2  2  2  2
++         2  2  2  2  2  2  2  2  2  2  2  2  2  2  2  0  0
++         0  0  0  0  0  0  0  0  0  0  0  0  0  0  0  0  0
++         0  0  0  0  0  0  0  0  0  0  0  0  0  0  0  0  0
++         0  0  0  0  0  0  0  0  0  0  0  0  0  0  0  0  0
%c cc cc ccc ccc cccc cccc cccc cccc ccccc ccccc ccccc ccccc
%c cc cc ccc ccc cccc cccc cccc cccc ccccc ccccc ccccc ccccc
%f  0.0000000  0.000000000  0.00000000000  0.000000000000000
%f  0.0000000  0.000000000  0.00000000000  0.000000000000000
%i    0    0    0    0      0      0      0      0         0
%i    0    0    0    0      0      0      0      0         0
/*      NGA, ST. LOUIS,MO.                                  
/*   EPHEMERIS COMPUTED FROM 2 DAYS OF DATA                 
/*   EPOCHA v8 SMOOTHER                                     
/*   G2139 IERS2010 SATIGS SATAPC                           
*  2022  9 30 10 35  0.00000000
P  1  22368.614381  14291.734968   2957.441537    275.261585                    
V  1   2290.900506   3771.595601 -31854.431542     -0.063104                    
P  2 -21129.061204 -15702.606950   3470.566299   -644.201232                    
V  2   4506.107436   -389.195601  31594.904621      0.014330                    
P  3  12165.059138  12717.297098  19797.851887   -358.605482                    
V  3  -3609.127024  25106.652497 -13719.477005     -0.050711                    
P  4  20573.915219   3982.867884  16380.333605   -110.982164                    
V  4 -18563.269320   9447.959864  20923.672160      0.058599                    
P  5  -7542.940709 -22095.729083 -12717.446002    -98.591720                    
V  5   3252.576745 -15747.624586  25908.215621     -0.014508                    
P  6   4244.736230 -14681.442763  21771.943914    477.135805                    
V  6  22354.603365  15912.563519   6460.842148      0.116725                    
P  7  21474.683979   2103.096802 -15382.424588    303.187612                    
V  7  15065.622560  13491.006918  21789.273823     -0.034626                    
P  8  12660.643849  10261.052517 -21076.401252    -86.776234                    
V  8 -23794.501235  11898.887111  -8163.228699     -0.016825                    
P  9  24849.673164  -6179.231001   7058.673398   -289.509988                    
V  9  -6995.866492   6417.134686  29873.428094      0.049853                    
P 10 -11352.232741  19380.317945 -13776.817740     -5.474099                    
V 10   -286.855557 -17964.279679 -25065.009883     -0.015968                    
P 11  -6542.398898 -19895.584426  16356.202981    -20.895804                    
V 11  17243.604778  11670.210805  21057.754414     -0.036514                    
P 12 -11149.453610 -13924.685515  19447.535563   -286.462473                    
V 12   5530.305086 -24631.154278 -14170.945575     -0.060216                    
P 13  -3374.374679 -14745.959081 -21996.559340    397.234776                    
V 13  26449.809761  -7536.309068   1183.011521      0.071396                    
P 14  13202.023392 -17500.500372 -14909.848934    -99.486744                    
V 14   -324.765199  19157.770174 -22869.195127      0.033071                    
P 15 -14126.425377  -9539.606663 -20864.671475    -24.801025                    
V 15  21362.159313 -14061.085609  -7912.682592      0.031321                    
P 16    524.020339  25229.590795  -7764.398203   -525.369941                    
V 16  -4548.934294   8896.845845  30102.034430     -0.007994                    
P 17  21877.526047 -13451.897319   7332.616358    664.195331                    
V 17   8857.187228  -1132.341227 -30265.818372      0.036940                    
P 18 -20428.415099   -876.316785 -17033.728118     31.098870                    
V 18 -16312.010688 -14133.079291  20160.905635     -0.130727                    
P 19  14513.858640 -15644.393415  15410.462006    217.528133                    
V 19  19675.151233  -4382.079091 -22874.372619      0.050589                    
P 20   -673.044542 -26651.734451   1204.414436    482.231064                    
V 20   3207.710477   1328.346907  31195.405423     -0.031021                    
P 21  20506.856106  16548.338909  -5043.559513    158.745479                    
V 21  -7175.306809  -1762.537419 -30437.710640     -0.005531                    
P 22 -11194.914446  16866.320847  17522.596373    337.099054                    
V 22 -20842.954876   5531.819637 -19273.981510      0.068940                    
P 23 -14532.506995   9387.226298 -20124.917583     -0.604242                    
V 23    857.205185 -25550.526329 -12669.419949     -0.003873                    
P 24 -22180.119742 -14958.360748  -1759.266185    117.372832                    
V 24   3255.909325  -1833.501906 -30788.688667     -0.138015                    
P 25 -15186.522609   -793.696309  21480.130262    377.473474                    
V 25   2448.135485 -27888.783192    959.520932      0.039910                    
P 26  -3500.630125  25941.727389   3211.632991    230.641015                    
V 26  -3663.259099  -4400.699221  31045.969576      0.015157                    
P 27   -139.894466  16044.012856 -21311.267429    205.174251                    
V 27 -24601.188387  10167.193631   8282.819957     -0.052558                    
P 28   9292.149689 -24041.941164  -6409.897576    334.208931                    
V 28    662.670360   9045.039584 -30322.848862     -0.036056                    
P 29 -25134.875159   3274.218618   8031.349349   -555.841677                    
V 29   8937.698000  -5344.418191  29903.313196     -0.031636                    
P 30  14081.197151  -8575.272207 -20772.922828   -537.188693                    
V 30  20916.791042  16506.054847   7079.945676     -0.000773                    
P 31  -4018.403722  15546.283190  20933.653079   -195.158334                    
V 31 -22087.185914 -15604.608482   7752.661845     -0.013117                    
P 32 -19180.692405  15834.121789   9183.056098   -248.770488                    
V 32 -11615.973026   2285.680332 -28856.787548     -0.116263                    
EOF
